[Satellite]
VERSION=1.1
NAME=TERRA
NICKNAME=TERRA
TLE1=1 25994U 99068A   17186.19630552 -.00000152  00000-0 -23722-4 0  9995
TLE2=2 25994  98.2071 260.9855 0001103  76.5829 283.5526 14.57108143933296
